QIANFAN-18              
1 60396U 24140T   26062.73912750  .00000124  00000+0  17345-3 0  9994
2 60396  88.9724 290.5953 0013289 320.8360  39.1828 13.51003312 78467
QIANFAN-19              
1 61552U 24185A   26062.66315057  .00000640  00000+0  32703-3 0  9995
2 61552  88.9757  68.6499 0008758  55.8256 304.3760 14.14384712 81104
QIANFAN-20              
1 61553U 24185B   26062.72454289  .00000634  00000+0  35844-3 0  9996
2 61553  88.9754  69.0485 0007917  87.0584 273.1506 14.08931144 80895
QIANFAN-21              
1 61554U 24185C   26062.77678456  .00000825  00000+0  36179-3 0  9990
2 61554  88.9675  67.4688 0012966  97.8326 262.4338 14.22725254 81498
QIANFAN-22              
1 61555U 24185D   26062.77329222  .00000312  00000+0  25842-3 0  9991
2 61555  88.9738  70.3517 0008527 104.4177 255.7941 13.86337681 80160
QIANFAN-23              
1 61556U 24185E   26062.73640491  .00000697  00000+0  34378-3 0  9992
2 61556  88.9749  68.4130 0009655  63.6210 296.5968 14.16389692 81211
QIANFAN-24              
1 61557U 24185F   26062.78143829  .00000971  00000+0  41717-3 0  9991
2 61557  88.9733  67.6803 0010778  44.0333 316.1715 14.23928569 81556
QIANFAN-25              
1 61558U 24185G   26062.78643965  .00000559  00000+0  33287-3 0  9993
2 61558  88.9746  68.9989 0011926  70.2880 289.9587 14.05993099 80894
QIANFAN-26              
1 61559U 24185H   26062.72189727  .00000287  00000+0  27401-3 0  9998
2 61559  88.9744  70.9943 0007589 117.1808 243.0132 13.77860329 79822
QIANFAN-27              
1 61560U 24185J   26062.78739465  .00000711  00000+0  28382-3 0  9997
2 61560  88.9746  67.4236 0008866  37.5273 322.6538 14.27440955 81723
QIANFAN-28              
1 61561U 24185K   26062.79790384  .00001124  00000+0  44544-3 0  9993
2 61561  88.9761  67.4295 0008464  38.3863 321.7932 14.28208254 81749
QIANFAN-29              
1 61562U 24185L   26062.68855923  .00000216  00000+0  31576-3 0  9995
2 61562  88.9717  72.9301 0010188 165.0002 195.1453 13.51042749 78724
QIANFAN-30              
1 61563U 24185M   26062.79886858  .00000211  00000+0  31257-3 0  9990
2 61563  88.9736  72.4752 0008529 148.6141 211.5520 13.50017959 79002
QIANFAN-31              
1 61564U 24185N   26062.73336326  .00000225  00000+0  29406-3 0  9993
2 61564  88.9721  72.1549 0008205 140.1672 220.0087 13.58002204 79159
QIANFAN-32              
1 61565U 24185P   26062.72251000  .00000179  00000+0  25937-3 0  9991
2 61565  88.9781  72.6420 0009537 178.0716 182.0474 13.50763355 78976
QIANFAN-33              
1 61566U 24185Q   26062.72293443  .00000511  00000+0  35900-3 0  9990
2 61566  88.9735  69.7620 0009319  78.2106 282.0115 13.96621071 80465
QIANFAN-34              
1 61567U 24185R   26062.78422233  .00000543  00000+0  34490-3 0  9996
2 61567  88.9711  69.2111 0008270  81.7444 278.4673 14.02381130 80712
