[{"OBJECT_NAME":"QIANFAN-18","OBJECT_ID":"2024-140T","EPOCH":"2026-03-03T17:44:20.616000","MEAN_MOTION":13.51003312,"ECCENTRICITY":0.0013289,"INCLINATION":88.9724,"RA_OF_ASC_NODE":290.5953,"ARG_OF_PERICENTER":320.836,"MEAN_ANOMALY":39.1828,"EPHEMERIS_TYPE":0,"CLASSIFICATION_TYPE":"U","NORAD_CAT_ID":60396,"ELEMENT_SET_NO":999,"REV_AT_EPOCH":7846,"BSTAR":0.00017345,"MEAN_MOTION_DOT":1.24e-6,"MEAN_MOTION_DDOT":0},{"OBJECT_NAME":"QIANFAN-19","OBJECT_ID":"2024-185A","EPOCH":"2026-03-03T15:54:56.209248","MEAN_MOTION":14.14384712,"ECCENTRICITY":0.0008758,"INCLINATION":88.9757,"RA_OF_ASC_NODE":68.6499,"ARG_OF_PERICENTER":55.8256,"MEAN_ANOMALY":304.376,"EPHEMERIS_TYPE":0,"CLASSIFICATION_TYPE":"U","NORAD_CAT_ID":61552,"ELEMENT_SET_NO":999,"REV_AT_EPOCH":8110,"BSTAR":0.00032703,"MEAN_MOTION_DOT":6.4e-6,"MEAN_MOTION_DDOT":0},{"OBJECT_NAME":"QIANFAN-20","OBJECT_ID":"2024-185B","EPOCH":"2026-03-03T17:23:20.505696","MEAN_MOTION":14.08931144,"ECCENTRICITY":0.0007917,"INCLINATION":88.9754,"RA_OF_ASC_NODE":69.0485,"ARG_OF_PERICENTER":87.0584,"MEAN_ANOMALY":273.1506,"EPHEMERIS_TYPE":0,"CLASSIFICATION_TYPE":"U","NORAD_CAT_ID":61553,"ELEMENT_SET_NO":999,"REV_AT_EPOCH":8089,"BSTAR":0.00035844,"MEAN_MOTION_DOT":6.34e-6,"MEAN_MOTION_DDOT":0},{"OBJECT_NAME":"QIANFAN-21","OBJECT_ID":"2024-185C","EPOCH":"2026-03-03T18:38:34.185984","MEAN_MOTION":14.22725254,"ECCENTRICITY":0.0012966,"INCLINATION":88.9675,"RA_OF_ASC_NODE":67.4688,"ARG_OF_PERICENTER":97.8326,"MEAN_ANOMALY":262.4338,"EPHEMERIS_TYPE":0,"CLASSIFICATION_TYPE":"U","NORAD_CAT_ID":61554,"ELEMENT_SET_NO":999,"REV_AT_EPOCH":8149,"BSTAR":0.00036179,"MEAN_MOTION_DOT":8.25e-6,"MEAN_MOTION_DDOT":0},{"OBJECT_NAME":"QIANFAN-22","OBJECT_ID":"2024-185D","EPOCH":"2026-03-03T18:33:32.447808","MEAN_MOTION":13.86337681,"ECCENTRICITY":0.0008527,"INCLINATION":88.9738,"RA_OF_ASC_NODE":70.3517,"ARG_OF_PERICENTER":104.4177,"MEAN_ANOMALY":255.7941,"EPHEMERIS_TYPE":0,"CLASSIFICATION_TYPE":"U","NORAD_CAT_ID":61555,"ELEMENT_SET_NO":999,"REV_AT_EPOCH":8016,"BSTAR":0.00025842,"MEAN_MOTION_DOT":3.12e-6,"MEAN_MOTION_DDOT":0},{"OBJECT_NAME":"QIANFAN-23","OBJECT_ID":"2024-185E","EPOCH":"2026-03-03T17:40:25.384224","MEAN_MOTION":14.16389692,"ECCENTRICITY":0.0009655,"INCLINATION":88.9749,"RA_OF_ASC_NODE":68.413,"ARG_OF_PERICENTER":63.621,"MEAN_ANOMALY":296.5968,"EPHEMERIS_TYPE":0,"CLASSIFICATION_TYPE":"U","NORAD_CAT_ID":61556,"ELEMENT_SET_NO":999,"REV_AT_EPOCH":8121,"BSTAR":0.00034378,"MEAN_MOTION_DOT":6.97e-6,"MEAN_MOTION_DDOT":0},{"OBJECT_NAME":"QIANFAN-24","OBJECT_ID":"2024-185F","EPOCH":"2026-03-03T18:45:16.268256","MEAN_MOTION":14.23928569,"ECCENTRICITY":0.0010778,"INCLINATION":88.9733,"RA_OF_ASC_NODE":67.6803,"ARG_OF_PERICENTER":44.0333,"MEAN_ANOMALY":316.1715,"EPHEMERIS_TYPE":0,"CLASSIFICATION_TYPE":"U","NORAD_CAT_ID":61557,"ELEMENT_SET_NO":999,"REV_AT_EPOCH":8155,"BSTAR":0.00041717,"MEAN_MOTION_DOT":9.71e-6,"MEAN_MOTION_DDOT":0},{"OBJECT_NAME":"QIANFAN-25","OBJECT_ID":"2024-185G","EPOCH":"2026-03-03T18:52:28.385760","MEAN_MOTION":14.05993099,"ECCENTRICITY":0.0011926,"INCLINATION":88.9746,"RA_OF_ASC_NODE":68.9989,"ARG_OF_PERICENTER":70.288,"MEAN_ANOMALY":289.9587,"EPHEMERIS_TYPE":0,"CLASSIFICATION_TYPE":"U","NORAD_CAT_ID":61558,"ELEMENT_SET_NO":999,"REV_AT_EPOCH":8089,"BSTAR":0.00033287,"MEAN_MOTION_DOT":5.59e-6,"MEAN_MOTION_DDOT":0},{"OBJECT_NAME":"QIANFAN-26","OBJECT_ID":"2024-185H","EPOCH":"2026-03-03T17:19:31.924128","MEAN_MOTION":13.77860329,"ECCENTRICITY":0.0007589,"INCLINATION":88.9744,"RA_OF_ASC_NODE":70.9943,"ARG_OF_PERICENTER":117.1808,"MEAN_ANOMALY":243.0132,"EPHEMERIS_TYPE":0,"CLASSIFICATION_TYPE":"U","NORAD_CAT_ID":61559,"ELEMENT_SET_NO":999,"REV_AT_EPOCH":7982,"BSTAR":0.00027401,"MEAN_MOTION_DOT":2.87e-6,"MEAN_MOTION_DDOT":0},{"OBJECT_NAME":"QIANFAN-27","OBJECT_ID":"2024-185J","EPOCH":"2026-03-03T18:53:50.897760","MEAN_MOTION":14.27440955,"ECCENTRICITY":0.0008866,"INCLINATION":88.9746,"RA_OF_ASC_NODE":67.4236,"ARG_OF_PERICENTER":37.5273,"MEAN_ANOMALY":322.6538,"EPHEMERIS_TYPE":0,"CLASSIFICATION_TYPE":"U","NORAD_CAT_ID":61560,"ELEMENT_SET_NO":999,"REV_AT_EPOCH":8172,"BSTAR":0.00028382,"MEAN_MOTION_DOT":7.11e-6,"MEAN_MOTION_DDOT":0},{"OBJECT_NAME":"QIANFAN-28","OBJECT_ID":"2024-185K","EPOCH":"2026-03-03T19:08:58.891776","MEAN_MOTION":14.28208254,"ECCENTRICITY":0.0008464,"INCLINATION":88.9761,"RA_OF_ASC_NODE":67.4295,"ARG_OF_PERICENTER":38.3863,"MEAN_ANOMALY":321.7932,"EPHEMERIS_TYPE":0,"CLASSIFICATION_TYPE":"U","NORAD_CAT_ID":61561,"ELEMENT_SET_NO":999,"REV_AT_EPOCH":8174,"BSTAR":0.00044544,"MEAN_MOTION_DOT":1.124e-5,"MEAN_MOTION_DDOT":0},{"OBJECT_NAME":"QIANFAN-29","OBJECT_ID":"2024-185L","EPOCH":"2026-03-03T16:31:31.517472","MEAN_MOTION":13.51042749,"ECCENTRICITY":0.0010188,"INCLINATION":88.9717,"RA_OF_ASC_NODE":72.9301,"ARG_OF_PERICENTER":165.0002,"MEAN_ANOMALY":195.1453,"EPHEMERIS_TYPE":0,"CLASSIFICATION_TYPE":"U","NORAD_CAT_ID":61562,"ELEMENT_SET_NO":999,"REV_AT_EPOCH":7872,"BSTAR":0.00031576,"MEAN_MOTION_DOT":2.16e-6,"MEAN_MOTION_DDOT":0},{"OBJECT_NAME":"QIANFAN-30","OBJECT_ID":"2024-185M","EPOCH":"2026-03-03T19:10:22.245312","MEAN_MOTION":13.50017959,"ECCENTRICITY":0.0008529,"INCLINATION":88.9736,"RA_OF_ASC_NODE":72.4752,"ARG_OF_PERICENTER":148.6141,"MEAN_ANOMALY":211.552,"EPHEMERIS_TYPE":0,"CLASSIFICATION_TYPE":"U","NORAD_CAT_ID":61563,"ELEMENT_SET_NO":999,"REV_AT_EPOCH":7900,"BSTAR":0.00031257,"MEAN_MOTION_DOT":2.11e-6,"MEAN_MOTION_DDOT":0},{"OBJECT_NAME":"QIANFAN-31","OBJECT_ID":"2024-185N","EPOCH":"2026-03-03T17:36:02.585664","MEAN_MOTION":13.58002204,"ECCENTRICITY":0.0008205,"INCLINATION":88.9721,"RA_OF_ASC_NODE":72.1549,"ARG_OF_PERICENTER":140.1672,"MEAN_ANOMALY":220.0087,"EPHEMERIS_TYPE":0,"CLASSIFICATION_TYPE":"U","NORAD_CAT_ID":61564,"ELEMENT_SET_NO":999,"REV_AT_EPOCH":7915,"BSTAR":0.00029406,"MEAN_MOTION_DOT":2.25e-6,"MEAN_MOTION_DDOT":0},{"OBJECT_NAME":"QIANFAN-32","OBJECT_ID":"2024-185P","EPOCH":"2026-03-03T17:20:24.864000","MEAN_MOTION":13.50763355,"ECCENTRICITY":0.0009537,"INCLINATION":88.9781,"RA_OF_ASC_NODE":72.642,"ARG_OF_PERICENTER":178.0716,"MEAN_ANOMALY":182.0474,"EPHEMERIS_TYPE":0,"CLASSIFICATION_TYPE":"U","NORAD_CAT_ID":61565,"ELEMENT_SET_NO":999,"REV_AT_EPOCH":7897,"BSTAR":0.00025937,"MEAN_MOTION_DOT":1.79e-6,"MEAN_MOTION_DDOT":0},{"OBJECT_NAME":"QIANFAN-33","OBJECT_ID":"2024-185Q","EPOCH":"2026-03-03T17:21:01.534752","MEAN_MOTION":13.96621071,"ECCENTRICITY":0.0009319,"INCLINATION":88.9735,"RA_OF_ASC_NODE":69.762,"ARG_OF_PERICENTER":78.2106,"MEAN_ANOMALY":282.0115,"EPHEMERIS_TYPE":0,"CLASSIFICATION_TYPE":"U","NORAD_CAT_ID":61566,"ELEMENT_SET_NO":999,"REV_AT_EPOCH":8046,"BSTAR":0.000359,"MEAN_MOTION_DOT":5.11e-6,"MEAN_MOTION_DDOT":0},{"OBJECT_NAME":"QIANFAN-34","OBJECT_ID":"2024-185R","EPOCH":"2026-03-03T18:49:16.809312","MEAN_MOTION":14.0238113,"ECCENTRICITY":0.000827,"INCLINATION":88.9711,"RA_OF_ASC_NODE":69.2111,"ARG_OF_PERICENTER":81.7444,"MEAN_ANOMALY":278.4673,"EPHEMERIS_TYPE":0,"CLASSIFICATION_TYPE":"U","NORAD_CAT_ID":61567,"ELEMENT_SET_NO":999,"REV_AT_EPOCH":8071,"BSTAR":0.0003449,"MEAN_MOTION_DOT":5.43e-6,"MEAN_MOTION_DDOT":0}]
